NORAD_CAT_ID,OBJECT_NAME,OBJECT_TYPE,EPOCH,MEAN_MOTION,ECCENTRICITY,INCLINATION,RA_OF_ASC_NODE,ARG_OF_PERICENTER,MEAN_ANOMALY,BSTAR,MEAN_MOTION_DOT,MEAN_MOTION_DDOT,TLE_LINE0,TLE_LINE1,TLE_LINE2,SEMIMAJOR_AXIS,PERIOD,APOGEE,PERIGEE,DECAYED
49438.0,STARLINK-3044,PAYLOAD,2022-10-22 12:09:36,15.08829005,0.000251,53.2188,349.5932,31.4307,328.6835,-3.7541e-05,-8.86e-06,0.0,0 STARLINK-3044,1 49438U 21104AG  22295.50666907 -.00000886  00000-0 -37541-4 0  9993,2 49438  53.2188 349.5932 0002510  31.4307 328.6835 15.08829005 53661,6917.9140000000025,95.438,541.515,538.043,0.0
49438.0,STARLINK-3044,PAYLOAD,2022-10-23 04:03:26,15.08845426,0.0002479,53.2185,346.6194,27.6581,332.4542,6.5731e-05,7.58e-06,0.0,0 STARLINK-3044,1 49438U 21104AG  22296.16905368  .00000758  00000-0  65731-4 0  9991,2 49438  53.2185 346.6194 0002479  27.6581 332.4542 15.08845426 53765,6917.864000000001,95.437,541.444,538.014,0.0
49438.0,STARLINK-3044,PAYLOAD,2022-10-23 08:49:35,15.08850441,0.0002495,53.2182,345.7273,29.5401,330.5732,0.00010993,1.462e-05,0.0,0 STARLINK-3044,1 49438U 21104AG  22296.36776823  .00001462  00000-0  10993-3 0  9997,2 49438  53.2182 345.7273 0002495  29.5401 330.5732 15.08850441 52728,6917.848000000001,95.437,541.439,537.987,0.0
49438.0,STARLINK-3044,PAYLOAD,2022-10-23 19:57:16,15.08853313,0.0002522,53.2182,343.6457,32.0262,328.0883,8.1874e-05,1.015e-05,0.0,0 STARLINK-3044,1 49438U 21104AG  22296.83144435  .00001015  00000-0  81874-4 0  9998,2 49438  53.2182 343.6457 0002522  32.0262 328.0883 15.08853313 53860,6917.84,95.437,541.4490000000002,537.96,0.0
49438.0,STARLINK-3044,PAYLOAD,2022-10-24 11:51:10,15.08814327,0.0002593,53.2184,340.6723,30.7473,329.3671,-0.00013193,-2.386e-05,0.0,0 STARLINK-3044,1 49438U 21104AG  22297.49387527 -.00002386  00000-0 -13193-3 0  9994,2 49438  53.2184 340.6723 0002593  30.7473 329.3671 15.08814327 52895,6917.959,95.439,541.618,538.03,0.0
49438.0,STARLINK-3044,PAYLOAD,2022-10-25 02:09:39,15.08824969,0.0002552999999999,53.218,337.9962,33.6092,326.5062,-0.0002189,-3.769e-05,0.0,0 STARLINK-3044,1 49438U 21104AG  22298.09003815 -.00003769  00000-0 -21890-3 0  9995,2 49438  53.2180 337.9962 0002553  33.6092 326.5062 15.08824969 54056,6917.926,95.439,541.557,538.025,0.0
49438.0,STARLINK-3044,PAYLOAD,2022-10-25 11:41:58,15.08828299,0.0002566,53.2183,336.212,36.7097,323.4071,-0.00014136,-2.537e-05,0.0,0 STARLINK-3044,1 49438U 21104AG  22298.48747701 -.00002537  00000-0 -14136-3 0  9994,2 49438  53.2183 336.2120 0002566  36.7097 323.4071 15.08828299 53044,6917.916,95.438,541.556,538.006,0.0
49438.0,STARLINK-3044,PAYLOAD,2022-10-25 13:17:21,15.08829938,0.000258,53.218,335.9142,35.4951,324.6212,-0.00014662,-2.621e-05,0.0,0 STARLINK-3044,1 49438U 21104AG  22298.55371663 -.00002621  00000-0 -14662-3 0  9990,2 49438  53.2180 335.9142 0002580  35.4951 324.6212 15.08829938 54123,6917.911,95.438,541.561,537.991,0.0
49438.0,STARLINK-3044,PAYLOAD,2022-10-25 19:38:53,15.08829198,0.0002085,53.2185,334.7248,42.4089,317.7064,-7.1947e-05,-1.433e-05,0.0,0 STARLINK-3044,1 49438U 21104AG  22298.81867582 -.00001433  00000-0 -71947-4 0  9999,2 49438  53.2185 334.7248 0002085  42.4089 317.7064 15.08829198 53093,6917.913000000001,95.438,541.221,538.336,0.0
49438.0,STARLINK-3044,PAYLOAD,2022-10-26 09:57:21,15.08826301,0.0002645,53.2182,332.0486,33.6032,326.5128,0.00014284,1.985e-05,0.0,0 STARLINK-3044,1 49438U 21104AG  22299.41483578  .00001985  00000-0  14284-3 0  9995,2 49438  53.2182 332.0486 0002645  33.6032 326.5128 15.08826301 53189,6917.922,95.438,541.617,537.957,0.0
49438.0,STARLINK-3044,PAYLOAD,2022-10-26 19:29:40,15.08830821,0.0002742,53.2181,330.2644,37.125,322.9931,0.0002103,3.059e-05,0.0,0 STARLINK-3044,1 49438U 21104AG  22299.81227467  .00003059  00000-0  21030-3 0  9993,2 49438  53.2181 330.2644 0002742  37.1250 322.9931 15.08830821 54313,6917.908,95.438,541.67,537.877,0.0
49438.0,STARLINK-3044,PAYLOAD,2022-10-27 03:26:35,15.08840453,0.0002683999999999,53.218,328.7775,35.5635,324.5535,0.00023018,3.377e-05,0.0,0 STARLINK-3044,1 49438U 21104AG  22300.14347043  .00003377  00000-0  23018-3 0  9996,2 49438  53.2180 328.7775 0002684  35.5635 324.5535 15.08840453 54368,6917.879,95.438,541.601,537.887,0.0
49438.0,STARLINK-3044,PAYLOAD,2022-10-27 08:12:45,15.08844951,0.0002686,53.218,327.8854,36.4711,323.6464,0.00026266,3.895e-05,0.0,0 STARLINK-3044,1 49438U 21104AG  22300.34218757  .00003895  00000-0  26266-3 0  9990,2 49438  53.2180 327.8854 0002686  36.4711 323.6464 15.08844951 53326,6917.865,95.437,541.5880000000002,537.872,0.0
49438.0,STARLINK-3044,PAYLOAD,2022-10-27 19:20:27,15.08843265,0.0002695,53.2178,325.8040000000001,36.8376,323.2801,0.00016902,2.403e-05,0.0,0 STARLINK-3044,1 49438U 21104AG  22300.80587111  .00002403  00000-0  16902-3 0  9994,2 49438  53.2178 325.8040 0002695  36.8376 323.2801 15.08843265 53394,6917.87,95.437,541.6,537.871,0.0
49438.0,STARLINK-3044,PAYLOAD,2022-10-28 06:28:08,15.08850811,0.0002771999999999,53.2175,323.7223,37.5442,322.5743,0.00014572,2.032e-05,0.0,0 STARLINK-3044,1 49438U 21104AG  22301.26954534  .00002032  00000-0  14572-3 0  9991,2 49438  53.2175 323.7223 0002772  37.5442 322.5743 15.08850811 54538,6917.847,95.437,541.63,537.795,0.0
49438.0,STARLINK-3044,PAYLOAD,2022-10-28 08:03:31,15.08849824,0.0002735,53.2181,323.4253,36.5148,323.6031,0.00012315,1.673e-05,0.0,0 STARLINK-3044,1 49438U 21104AG  22301.33578650  .00001673  00000-0  12315-3 0  9993,2 49438  53.2181 323.4253 0002735  36.5148 323.6031 15.08849824 53472,6917.85,95.437,541.607,537.823,0.0
49438.0,STARLINK-3044,PAYLOAD,2022-10-28 19:11:13,15.08851285,0.0002751,53.218,321.3438,36.7006,323.4174,7.2871e-05,8.72e-06,0.0,0 STARLINK-3044,1 49438U 21104AG  22301.79946424  .00000872  00000-0  72871-4 0  9995,2 49438  53.2180 321.3438 0002751  36.7006 323.4174 15.08851285 53544,6917.846,95.437,541.614,537.808,0.0
49438.0,STARLINK-3044,PAYLOAD,2022-10-29 07:54:18,15.08851324,0.0002731999999999,53.2183,318.9642,38.9991,321.1197,6.1652e-06,-1.9e-06,0.0,0 STARLINK-3044,1 49438U 21104AG  22302.32938177 -.00000190  00000-0  61652-5 0  9991,2 49438  53.2183 318.9642 0002732  38.9991 321.1197 15.08851324 54693,6917.846,95.437,541.601,537.821,0.0
49438.0,STARLINK-3044,PAYLOAD,2022-10-30 09:20:28,15.08852079,0.0002798,53.2182,314.2066,37.5305,322.5883,4.487e-05,4.26e-06,0.0,0 STARLINK-3044,1 49438U 21104AG  22303.38921315  .00000426  00000-0  44870-4 0  9997,2 49438  53.2182 314.2066 0002798  37.5305 322.5883 15.08852079 53781,6917.843000000003,95.437,541.644,537.773,0.0
49438.0,STARLINK-3044,PAYLOAD,2022-10-30 17:17:24,15.08833874,0.0002866,53.2181,312.7191,38.6195,321.5001,-6.6009e-05,-1.339e-05,0.0,0 STARLINK-3044,1 49438U 21104AG  22303.72042758 -.00001339  00000-0 -66009-4 0  9994,2 49438  53.2181 312.7191 0002866  38.6195 321.5001 15.08833874 53836,6917.899,95.438,541.747,537.781,0.0
49438.0,STARLINK-3044,PAYLOAD,2022-10-31 09:11:16,15.08830521,0.0002558,53.2176,309.7455,33.0362,327.0789,-7.6524e-05,-1.506e-05,0.0,0 STARLINK-3044,1 49438U 21104AG  22304.38283078 -.00001506  00000-0 -76524-4 0  9998,2 49438  53.2176 309.7455 0002558  33.0362 327.0789 15.08830521 53933,6917.909000000002,95.438,541.544,538.005,0.0
49438.0,STARLINK-3044,PAYLOAD,2022-10-31 17:08:11,15.08833263,0.0002512,53.2175,308.2593,32.1868,327.9277,3.8064e-05,3.17e-06,0.0,0 STARLINK-3044,1 49438U 21104AG  22304.71402744  .00000317  00000-0  38064-4 0  9992,2 49438  53.2175 308.2593 0002512  32.1868 327.9277 15.08833263 53982,6917.901,95.438,541.504,538.028,0.0
49438.0,STARLINK-3044,PAYLOAD,2022-10-31 23:29:44,15.08840822,0.0002548,53.2173,307.0694,31.721,328.3935,8.2176e-06,-1.58e-06,0.0,0 STARLINK-3044,1 49438U 21104AG  22304.97898358 -.00000158  00000-0  82176-5 0  9998,2 49438  53.2173 307.0694 0002548  31.7210 328.3935 15.08840822 55093,6917.878000000002,95.438,541.506,537.98,0.0
49438.0,STARLINK-3044,PAYLOAD,2022-11-01 10:37:26,15.08842111,0.0002621,53.2173,304.9878,33.3035,326.8121,-2.6856e-05,-7.16e-06,0.0,0 STARLINK-3044,1 49438U 21104AG  22305.44266461 -.00000716  00000-0 -26856-4 0  9998,2 49438  53.2173 304.9878 0002621  33.3035 326.8121 15.08842111 54090,6917.874,95.437,541.552,537.9259999999998,0.0
49438.0,STARLINK-3044,PAYLOAD,2022-11-01 16:58:58,15.08843762,0.0002605,53.2173,303.7987,33.639,326.4768,7.8872e-05,9.67e-06,0.0,0 STARLINK-3044,1 49438U 21104AG  22305.70762136  .00000967  00000-0  78872-4 0  9998,2 49438  53.2173 303.7987 0002605  33.6390 326.4768 15.08843762 54138,6917.869000000002,95.437,541.536,537.932,0.0
49438.0,STARLINK-3044,PAYLOAD,2022-11-01 23:20:31,15.08832683,0.0002479,53.2182,302.6097,28.2025,331.9101,0.00017459,2.491e-05,0.0,0 STARLINK-3044,1 49438U 21104AG  22305.97258671  .00002491  00000-0  17459-3 0  9998,2 49438  53.2182 302.6097 0002479  28.2025 331.9101 15.08832683 55247,6917.903,95.438,541.4830000000002,538.053,0.0
49438.0,STARLINK-3044,PAYLOAD,2022-11-02 08:52:50,15.08835043,0.0002569999999999,53.2176,300.8252,34.3567,325.7591,0.00020371,2.955e-05,0.0,0 STARLINK-3044,1 49438U 21104AG  22306.37002800  .00002955  00000-0  20371-3 0  9996,2 49438  53.2176 300.8252 0002570  34.3567 325.7591 15.08835043 54239,6917.896,95.438,541.538,537.9830000000002,0.0
49438.0,STARLINK-3044,PAYLOAD,2022-11-02 16:49:46,15.08827901,0.0002937,53.2188,299.3363,39.6118,320.5088,0.00010192,1.333e-05,0.0,0 STARLINK-3044,1 49438U 21104AG  22306.70123814  .00001333  00000-0  10192-3 0  9991,2 49438  53.2188 299.3363 0002937  39.6118 320.5088 15.08827901 55356,6917.917,95.438,541.814,537.751,0.0
49438.0,STARLINK-3044,PAYLOAD,2022-11-03 03:57:27,15.08847521,0.0002572,53.2173,297.2559,32.4839,327.6311,0.00013131,1.802e-05,0.0,0 STARLINK-3044,1 49438U 21104AG  22307.16490366  .00001802  00000-0  13131-3 0  9998,2 49438  53.2173 297.2559 0002572  32.4839 327.6311 15.08847521 55425,6917.857,95.437,541.502,537.943,0.0
